{
  "type": "FeatureCollection",
  "features": [
    {
      "type": "Feature",
      "properties": {
        "norad_id": 28890,
        "name": "BEIJING 1",
        "group": "dmc",
        "lat": -60.72022688187151,
        "lon": 125.17830181185167,
        "alt_km": 698.1962724452587,
        "timestamp": "2025-12-08T15:42:49.445139+00:00",
        "meta_object_name": "BEIJING 1",
        "meta_object_id": "2005-043A",
        "meta_epoch": "2025-12-08T07:47:29.008320",
        "meta_mean_motion": 14.63360225,
        "meta_eccentricity": 0.00151437,
        "meta_inclination": 98.2657,
        "meta_ra_of_asc_node": 109.8214,
        "meta_arg_of_pericenter": 154.7284,
        "meta_mean_anomaly": 205.4661,
        "meta_ephemeris_type": 0,
        "meta_classification_type": "U",
        "meta_norad_cat_id": 28890,
        "meta_element_set_no": 999,
        "meta_rev_at_epoch": 7273,
        "meta_bstar": 0.00017300291,
        "meta_mean_motion_dot": 8.46e-06,
        "meta_mean_motion_ddot": 0,
        "tle_line1": "1 28890U 05043A   25342.32464130  .00000846  00000+0  17300-3 0  9999",
        "tle_line2": "2 28890  98.2657 109.8214 0015143 154.7284 205.4661 14.63360225 72731"
      },
      "geometry": {
        "type": "Point",
        "coordinates": [
          125.17830181185167,
          -60.72022688187151
        ]
      }
    },
    {
      "type": "Feature",
      "properties": {
        "norad_id": 33320,
        "name": "HUANJING 1A (HJ-1A)",
        "group": "dmc",
        "lat": 31.24541057563429,
        "lon": -33.55632763692058,
        "alt_km": 603.2390515511925,
        "timestamp": "2025-12-08T15:42:49.445163+00:00",
        "meta_object_name": "HUANJING 1A (HJ-1A)",
        "meta_object_id": "2008-041A",
        "meta_epoch": "2025-12-08T05:51:31.879008",
        "meta_mean_motion": 14.83372973,
        "meta_eccentricity": 0.00204102,
        "meta_inclination": 97.654,
        "meta_ra_of_asc_node": 330.7301,
        "meta_arg_of_pericenter": 48.611,
        "meta_mean_anomaly": 311.6855,
        "meta_ephemeris_type": 0,
        "meta_classification_type": "U",
        "meta_norad_cat_id": 33320,
        "meta_element_set_no": 999,
        "meta_rev_at_epoch": 93009,
        "meta_bstar": 0.00033681935,
        "meta_mean_motion_dot": 2.721e-05,
        "meta_mean_motion_ddot": 0,
        "tle_line1": "1 33320U 08041A   25342.24411897  .00002721  00000+0  33682-3 0  9992",
        "tle_line2": "2 33320  97.6540 330.7301 0020410  48.6110 311.6855 14.83372973930095"
      },
      "geometry": {
        "type": "Point",
        "coordinates": [
          -33.55632763692058,
          31.24541057563429
        ]
      }
    },
    {
      "type": "Feature",
      "properties": {
        "norad_id": 33321,
        "name": "HUANJING 1B (HJ-1B)",
        "group": "dmc",
        "lat": -78.43633703893404,
        "lon": 113.83501496694225,
        "alt_km": 654.3693967452473,
        "timestamp": "2025-12-08T15:42:49.445178+00:00",
        "meta_object_name": "HUANJING 1B (HJ-1B)",
        "meta_object_id": "2008-041B",
        "meta_epoch": "2025-12-08T06:26:36.008448",
        "meta_mean_motion": 14.828038,
        "meta_eccentricity": 0.00382334,
        "meta_inclination": 97.6398,
        "meta_ra_of_asc_node": 334.4622,
        "meta_arg_of_pericenter": 89.9808,
        "meta_mean_anomaly": 270.5787,
        "meta_ephemeris_type": 0,
        "meta_classification_type": "U",
        "meta_norad_cat_id": 33321,
        "meta_element_set_no": 999,
        "meta_rev_at_epoch": 93011,
        "meta_bstar": 0.00028207054,
        "meta_mean_motion_dot": 2.259e-05,
        "meta_mean_motion_ddot": 0,
        "tle_line1": "1 33321U 08041B   25342.26847232  .00002259  00000+0  28207-3 0  9994",
        "tle_line2": "2 33321  97.6398 334.4622 0038233  89.9808 270.5787 14.82803800930115"
      },
      "geometry": {
        "type": "Point",
        "coordinates": [
          113.83501496694225,
          -78.43633703893404
        ]
      }
    },
    {
      "type": "Feature",
      "properties": {
        "norad_id": 33446,
        "name": "YAOGAN-4",
        "group": "dmc",
        "lat": 5.070074117255804,
        "lon": 93.5012406476558,
        "alt_km": 632.5950554020319,
        "timestamp": "2025-12-08T15:42:49.445191+00:00",
        "meta_object_name": "YAOGAN-4",
        "meta_object_id": "2008-061A",
        "meta_epoch": "2025-12-08T06:49:44.507424",
        "meta_mean_motion": 14.82661208,
        "meta_eccentricity": 0.00139672,
        "meta_inclination": 97.9177,
        "meta_ra_of_asc_node": 272.4273,
        "meta_arg_of_pericenter": 338.5116,
        "meta_mean_anomaly": 21.5509,
        "meta_ephemeris_type": 0,
        "meta_classification_type": "U",
        "meta_norad_cat_id": 33446,
        "meta_element_set_no": 999,
        "meta_rev_at_epoch": 91737,
        "meta_bstar": 0.00034965041,
        "meta_mean_motion_dot": 2.769e-05,
        "meta_mean_motion_ddot": 0,
        "tle_line1": "1 33446U 08061A   25342.28454291  .00002769  00000+0  34965-3 0  9999",
        "tle_line2": "2 33446  97.9177 272.4273 0013967 338.5116  21.5509 14.82661208917379"
      },
      "geometry": {
        "type": "Point",
        "coordinates": [
          93.5012406476558,
          5.070074117255804
        ]
      }
    },
    {
      "type": "Feature",
      "properties": {
        "norad_id": 35681,
        "name": "DEIMOS-1",
        "group": "dmc",
        "lat": 57.24422557452137,
        "lon": 131.2840764271869,
        "alt_km": 638.1928288694644,
        "timestamp": "2025-12-08T15:42:49.445202+00:00",
        "meta_object_name": "DEIMOS-1",
        "meta_object_id": "2009-041A",
        "meta_epoch": "2025-12-08T05:40:56.735328",
        "meta_mean_motion": 14.74942652,
        "meta_eccentricity": 0.00027029,
        "meta_inclination": 97.7153,
        "meta_ra_of_asc_node": 143.0501,
        "meta_arg_of_pericenter": 89.0402,
        "meta_mean_anomaly": 271.1117,
        "meta_ephemeris_type": 0,
        "meta_classification_type": "U",
        "meta_norad_cat_id": 35681,
        "meta_element_set_no": 999,
        "meta_rev_at_epoch": 87873,
        "meta_bstar": 0.00021265104,
        "meta_mean_motion_dot": 1.381e-05,
        "meta_mean_motion_ddot": 0,
        "tle_line1": "1 35681U 09041A   25342.23676777  .00001381  00000+0  21265-3 0  9999",
        "tle_line2": "2 35681  97.7153 143.0501 0002702  89.0402 271.1117 14.74942652878732"
      },
      "geometry": {
        "type": "Point",
        "coordinates": [
          131.2840764271869,
          57.24422557452137
        ]
      }
    },
    {
      "type": "Feature",
      "properties": {
        "norad_id": 35683,
        "name": "UK-DMC 2",
        "group": "dmc",
        "lat": 62.25227539856572,
        "lon": 102.45641128579396,
        "alt_km": 636.3989320723776,
        "timestamp": "2025-12-08T15:42:49.445213+00:00",
        "meta_object_name": "UK-DMC 2",
        "meta_object_id": "2009-041C",
        "meta_epoch": "2025-12-08T07:17:26.627424",
        "meta_mean_motion": 14.75607701,
        "meta_eccentricity": 0.00013579,
        "meta_inclination": 97.8564,
        "meta_ra_of_asc_node": 117.3321,
        "meta_arg_of_pericenter": 101.3385,
        "meta_mean_anomaly": 258.7977,
        "meta_ephemeris_type": 0,
        "meta_classification_type": "U",
        "meta_norad_cat_id": 35683,
        "meta_element_set_no": 999,
        "meta_rev_at_epoch": 87841,
        "meta_bstar": 0.00029831789,
        "meta_mean_motion_dot": 1.986e-05,
        "meta_mean_motion_ddot": 0,
        "tle_line1": "1 35683U 09041C   25342.30378041  .00001986  00000+0  29832-3 0  9991",
        "tle_line2": "2 35683  97.8564 117.3321 0001357 101.3385 258.7977 14.75607701878412"
      },
      "geometry": {
        "type": "Point",
        "coordinates": [
          102.45641128579396,
          62.25227539856572
        ]
      }
    },
    {
      "type": "Feature",
      "properties": {
        "norad_id": 40715,
        "name": "DMC3-FM1",
        "group": "dmc",
        "lat": -31.603829447337525,
        "lon": -145.24757613707942,
        "alt_km": 614.9247389627762,
        "timestamp": "2025-12-08T15:42:49.445224+00:00",
        "meta_object_name": "DMC3-FM1",
        "meta_object_id": "2015-032A",
        "meta_epoch": "2025-12-08T06:09:24.781248",
        "meta_mean_motion": 14.85429071,
        "meta_eccentricity": 0.00049202,
        "meta_inclination": 97.6702,
        "meta_ra_of_asc_node": 209.6123,
        "meta_arg_of_pericenter": 337.7619,
        "meta_mean_anomaly": 22.3383,
        "meta_ephemeris_type": 0,
        "meta_classification_type": "U",
        "meta_norad_cat_id": 40715,
        "meta_element_set_no": 999,
        "meta_rev_at_epoch": 56156,
        "meta_bstar": 0.00018174962,
        "meta_mean_motion_dot": 1.515e-05,
        "meta_mean_motion_ddot": 0,
        "tle_line1": "1 40715U 15032A   25342.25653682  .00001515  00000+0  18175-3 0  9997",
        "tle_line2": "2 40715  97.6702 209.6123 0004920 337.7619  22.3383 14.85429071561569"
      },
      "geometry": {
        "type": "Point",
        "coordinates": [
          -145.24757613707942,
          -31.603829447337525
        ]
      }
    },
    {
      "type": "Feature",
      "properties": {
        "norad_id": 40716,
        "name": "DMC3-FM2",
        "group": "dmc",
        "lat": -27.736924685416426,
        "lon": 27.37011983594554,
        "alt_km": 620.7094608693187,
        "timestamp": "2025-12-08T15:42:49.445235+00:00",
        "meta_object_name": "DMC3-FM2",
        "meta_object_id": "2015-032B",
        "meta_epoch": "2025-12-08T06:41:48.909120",
        "meta_mean_motion": 14.85430547,
        "meta_eccentricity": 0.00055526,
        "meta_inclination": 97.676,
        "meta_ra_of_asc_node": 211.0747,
        "meta_arg_of_pericenter": 342.0365,
        "meta_mean_anomaly": 18.0653,
        "meta_ephemeris_type": 0,
        "meta_classification_type": "U",
        "meta_norad_cat_id": 40716,
        "meta_element_set_no": 999,
        "meta_rev_at_epoch": 56156,
        "meta_bstar": 0.00018982721,
        "meta_mean_motion_dot": 1.585e-05,
        "meta_mean_motion_ddot": 0,
        "tle_line1": "1 40716U 15032B   25342.27903830  .00001585  00000+0  18983-3 0  9997",
        "tle_line2": "2 40716  97.6760 211.0747 0005552 342.0365  18.0653 14.85430547561564"
      },
      "geometry": {
        "type": "Point",
        "coordinates": [
          27.37011983594554,
          -27.736924685416426
        ]
      }
    },
    {
      "type": "Feature",
      "properties": {
        "norad_id": 40717,
        "name": "DMC3-FM3",
        "group": "dmc",
        "lat": 81.88965098589577,
        "lon": 104.34657471428598,
        "alt_km": 605.9579634430766,
        "timestamp": "2025-12-08T15:42:49.445246+00:00",
        "meta_object_name": "DMC3-FM3",
        "meta_object_id": "2015-032C",
        "meta_epoch": "2025-12-08T05:35:54.445920",
        "meta_mean_motion": 14.85421138,
        "meta_eccentricity": 0.00049186,
        "meta_inclination": 97.6814,
        "meta_ra_of_asc_node": 212.6607,
        "meta_arg_of_pericenter": 344.3893,
        "meta_mean_anomaly": 15.717,
        "meta_ephemeris_type": 0,
        "meta_classification_type": "U",
        "meta_norad_cat_id": 40717,
        "meta_element_set_no": 999,
        "meta_rev_at_epoch": 56156,
        "meta_bstar": 0.00015512189,
        "meta_mean_motion_dot": 1.285e-05,
        "meta_mean_motion_ddot": 0,
        "tle_line1": "1 40717U 15032C   25342.23326905  .00001285  00000+0  15512-3 0  9998",
        "tle_line2": "2 40717  97.6814 212.6607 0004918 344.3893  15.7170 14.85421138561567"
      },
      "geometry": {
        "type": "Point",
        "coordinates": [
          104.34657471428598,
          81.88965098589577
        ]
      }
    }
  ]
}